[{"OBJECT_NAME":"CANX-5","OBJECT_ID":"2014-034D","EPOCH":"2026-03-09T17:03:12.784896","MEAN_MOTION":14.81078391,"ECCENTRICITY":0.00123171,"INCLINATION":98.3278,"RA_OF_ASC_NODE":300.3368,"ARG_OF_PERICENTER":336.6034,"MEAN_ANOMALY":23.4615,"EPHEMERIS_TYPE":0,"CLASSIFICATION_TYPE":"U","NORAD_CAT_ID":40056,"ELEMENT_SET_NO":999,"REV_AT_EPOCH":62061,"BSTAR":0.00019034283,"MEAN_MOTION_DOT":1.421e-5,"MEAN_MOTION_DDOT":0},{"OBJECT_NAME":"CZ-6A DEB","OBJECT_ID":"2022-151WP","EPOCH":"2026-03-09T17:20:26.676672","MEAN_MOTION":14.69493143,"ECCENTRICITY":0.00711387,"INCLINATION":98.6315,"RA_OF_ASC_NODE":128.4948,"ARG_OF_PERICENTER":236.0974,"MEAN_ANOMALY":123.3451,"EPHEMERIS_TYPE":0,"CLASSIFICATION_TYPE":"U","NORAD_CAT_ID":55222,"ELEMENT_SET_NO":999,"REV_AT_EPOCH":17021,"BSTAR":0.0024814917,"MEAN_MOTION_DOT":0.00015263,"MEAN_MOTION_DDOT":0}]
